{
    "crs": {
        "properties": {
            "name": "urn:ogc:def:crs:EPSG::3857"
        },
        "type": "name"
    },
    "features": [
        {
            "geometry": {
                "coordinates": [
                    -0.15514054894447327,
                    0.3621615171432495
                ],
                "type": "Point"
            },
            "properties": {
                "frame": "map",
                "id": 0
            },
            "type": "Feature"
        },
        {
            "geometry": {
                "coordinates": [
                    -0.15514054894447327,
                    -0.014462126418948174
                ],
                "type": "Point"
            },
            "properties": {
                "frame": "map",
                "id": 1
            },
            "type": "Feature"
        },
        {
            "geometry": {
                "coordinates": [
                    -0.15514054894447327,
                    -0.42554348707199097
                ],
                "type": "Point"
            },
            "properties": {
                "frame": "map",
                "id": 2
            },
            "type": "Feature"
        },
        {
            "geometry": {
                "coordinates": [
                    1.7302067279815674,
                    0.10400475561618805
                ],
                "type": "Point"
            },
            "properties": {
                "frame": "map",
                "id": 3
            },
            "type": "Feature"
        },
        {
            "geometry": {
                "coordinates": [
                    1.7302067279815674,
                    0.4128017723560333
                ],
                "type": "Point"
            },
            "properties": {
                "frame": "map",
                "id": 4
            },
            "type": "Feature"
        },
        {
            "geometry": {
                "coordinates": [
                    0.8085766434669495,
                    -0.27323633432388306
                ],
                "type": "Point"
            },
            "properties": {
                "frame": "map",
                "id": 5
            },
            "type": "Feature"
        },
        {
            "geometry": {
                "coordinates": [
                    1.5943385362625122,
                    -0.27323633432388306
                ],
                "type": "Point"
            },
            "properties": {
                "frame": "map",
                "id": 6
            },
            "type": "Feature"
        },
        {
            "geometry": {
                "coordinates": [
                    0.8085766434669495,
                    0.10400475561618805
                ],
                "type": "Point"
            },
            "properties": {
                "frame": "map",
                "id": 7
            },
            "type": "Feature"
        },
        {
            "geometry": {
                "coordinates": [
                    0.8085766434669495,
                    0.4128017723560333
                ],
                "type": "Point"
            },
            "properties": {
                "frame": "map",
                "id": 8
            },
            "type": "Feature"
        },
        {
            "geometry": {
                "coordinates": [
                    0.31098899245262146,
                    -0.014462126418948174
                ],
                "type": "Point"
            },
            "properties": {
                "frame": "map",
                "id": 9
            },
            "type": "Feature"
        },
        {
            "geometry": {
                "coordinates": [
                    0.31098899245262146,
                    0.3621615171432495
                ],
                "type": "Point"
            },
            "properties": {
                "frame": "map",
                "id": 10
            },
            "type": "Feature"
        },
        {
            "geometry": {
                "coordinates": [
                    1.5943385362625122,
                    0.10400475561618805
                ],
                "type": "Point"
            },
            "properties": {
                "frame": "map",
                "id": 11
            },
            "type": "Feature"
        },
        {
            "geometry": {
                "coordinates": [
                    1.5943385362625122,
                    0.4128017723560333
                ],
                "type": "Point"
            },
            "properties": {
                "frame": "map",
                "id": 12
            },
            "type": "Feature"
        },
        {
            "geometry": {
                "type": "MultiLineString"
            },
            "properties": {
                "cost": 0.0,
                "endid": 10,
                "id": 20,
                "overridable": true,
                "startid": 0
            },
            "type": "Feature"
        },
        {
            "geometry": {
                "type": "MultiLineString"
            },
            "properties": {
                "cost": 0.0,
                "endid": 9,
                "id": 22,
                "overridable": true,
                "startid": 1
            },
            "type": "Feature"
        },
        {
            "geometry": {
                "type": "MultiLineString"
            },
            "properties": {
                "cost": 0.0,
                "endid": 9,
                "id": 24,
                "overridable": true,
                "startid": 2
            },
            "type": "Feature"
        },
        {
            "geometry": {
                "type": "MultiLineString"
            },
            "properties": {
                "cost": 0.0,
                "endid": 11,
                "id": 49,
                "overridable": true,
                "startid": 3
            },
            "type": "Feature"
        },
        {
            "geometry": {
                "type": "MultiLineString"
            },
            "properties": {
                "cost": 0.0,
                "endid": 12,
                "id": 47,
                "overridable": true,
                "startid": 4
            },
            "type": "Feature"
        },
        {
            "geometry": {
                "type": "MultiLineString"
            },
            "properties": {
                "cost": 0.0,
                "endid": 7,
                "id": 35,
                "overridable": true,
                "startid": 5
            },
            "type": "Feature"
        },
        {
            "geometry": {
                "type": "MultiLineString"
            },
            "properties": {
                "cost": 0.0,
                "endid": 6,
                "id": 40,
                "overridable": true,
                "startid": 5
            },
            "type": "Feature"
        },
        {
            "geometry": {
                "type": "MultiLineString"
            },
            "properties": {
                "cost": 0.0,
                "endid": 5,
                "id": 41,
                "overridable": true,
                "startid": 6
            },
            "type": "Feature"
        },
        {
            "geometry": {
                "type": "MultiLineString"
            },
            "properties": {
                "cost": 0.0,
                "endid": 11,
                "id": 45,
                "overridable": true,
                "startid": 6
            },
            "type": "Feature"
        },
        {
            "geometry": {
                "type": "MultiLineString"
            },
            "properties": {
                "cost": 0.0,
                "endid": 9,
                "id": 31,
                "overridable": true,
                "startid": 7
            },
            "type": "Feature"
        },
        {
            "geometry": {
                "type": "MultiLineString"
            },
            "properties": {
                "cost": 0.0,
                "endid": 8,
                "id": 33,
                "overridable": true,
                "startid": 7
            },
            "type": "Feature"
        },
        {
            "geometry": {
                "type": "MultiLineString"
            },
            "properties": {
                "cost": 0.0,
                "endid": 5,
                "id": 34,
                "overridable": true,
                "startid": 7
            },
            "type": "Feature"
        },
        {
            "geometry": {
                "type": "MultiLineString"
            },
            "properties": {
                "cost": 0.0,
                "endid": 11,
                "id": 38,
                "overridable": true,
                "startid": 7
            },
            "type": "Feature"
        },
        {
            "geometry": {
                "type": "MultiLineString"
            },
            "properties": {
                "cost": 0.0,
                "endid": 10,
                "id": 29,
                "overridable": true,
                "startid": 8
            },
            "type": "Feature"
        },
        {
            "geometry": {
                "type": "MultiLineString"
            },
            "properties": {
                "cost": 0.0,
                "endid": 7,
                "id": 32,
                "overridable": true,
                "startid": 8
            },
            "type": "Feature"
        },
        {
            "geometry": {
                "type": "MultiLineString"
            },
            "properties": {
                "cost": 0.0,
                "endid": 12,
                "id": 36,
                "overridable": true,
                "startid": 8
            },
            "type": "Feature"
        },
        {
            "geometry": {
                "type": "MultiLineString"
            },
            "properties": {
                "cost": 0.0,
                "endid": 1,
                "id": 23,
                "overridable": true,
                "startid": 9
            },
            "type": "Feature"
        },
        {
            "geometry": {
                "type": "MultiLineString"
            },
            "properties": {
                "cost": 0.0,
                "endid": 2,
                "id": 25,
                "overridable": true,
                "startid": 9
            },
            "type": "Feature"
        },
        {
            "geometry": {
                "type": "MultiLineString"
            },
            "properties": {
                "cost": 0.0,
                "endid": 10,
                "id": 27,
                "overridable": true,
                "startid": 9
            },
            "type": "Feature"
        },
        {
            "geometry": {
                "type": "MultiLineString"
            },
            "properties": {
                "cost": 0.0,
                "endid": 7,
                "id": 30,
                "overridable": true,
                "startid": 9
            },
            "type": "Feature"
        },
        {
            "geometry": {
                "type": "MultiLineString"
            },
            "properties": {
                "cost": 0.0,
                "endid": 0,
                "id": 21,
                "overridable": true,
                "startid": 10
            },
            "type": "Feature"
        },
        {
            "geometry": {
                "type": "MultiLineString"
            },
            "properties": {
                "cost": 0.0,
                "endid": 9,
                "id": 26,
                "overridable": true,
                "startid": 10
            },
            "type": "Feature"
        },
        {
            "geometry": {
                "type": "MultiLineString"
            },
            "properties": {
                "cost": 0.0,
                "endid": 8,
                "id": 28,
                "overridable": true,
                "startid": 10
            },
            "type": "Feature"
        },
        {
            "geometry": {
                "type": "MultiLineString"
            },
            "properties": {
                "cost": 0.0,
                "endid": 7,
                "id": 39,
                "overridable": true,
                "startid": 11
            },
            "type": "Feature"
        },
        {
            "geometry": {
                "type": "MultiLineString"
            },
            "properties": {
                "cost": 0.0,
                "endid": 12,
                "id": 43,
                "overridable": true,
                "startid": 11
            },
            "type": "Feature"
        },
        {
            "geometry": {
                "type": "MultiLineString"
            },
            "properties": {
                "cost": 0.0,
                "endid": 6,
                "id": 44,
                "overridable": true,
                "startid": 11
            },
            "type": "Feature"
        },
        {
            "geometry": {
                "type": "MultiLineString"
            },
            "properties": {
                "cost": 0.0,
                "endid": 3,
                "id": 48,
                "overridable": true,
                "startid": 11
            },
            "type": "Feature"
        },
        {
            "geometry": {
                "type": "MultiLineString"
            },
            "properties": {
                "cost": 0.0,
                "endid": 8,
                "id": 37,
                "overridable": true,
                "startid": 12
            },
            "type": "Feature"
        },
        {
            "geometry": {
                "type": "MultiLineString"
            },
            "properties": {
                "cost": 0.0,
                "endid": 11,
                "id": 42,
                "overridable": true,
                "startid": 12
            },
            "type": "Feature"
        },
        {
            "geometry": {
                "type": "MultiLineString"
            },
            "properties": {
                "cost": 0.0,
                "endid": 4,
                "id": 46,
                "overridable": true,
                "startid": 12
            },
            "type": "Feature"
        }
    ],
    "name": "graph",
    "type": "FeatureCollection"
}
